{
  "type": "FeatureCollection",
  "features": [
    {
      "type": "Feature",
      "properties": {
        "id": "PENAMBAHAN",
        "nama": "Areal Penambahan",
        "kategori": "Penambahan",
        "warna": "#ea580c",
        "luas_ha": 35.546,
        "luas_m2": 355455.4
      },
      "geometry": {
        "type": "Polygon",
        "coordinates": [
          [
            [
              106.8328056466279,
              -7.101465807013059
            ],
            [
              106.8328958486833,
              -7.101344245207997
            ],
            [
              106.83294252005582,
              -7.101246814256304
            ],
            [
              106.83290751498978,
              -7.101190099553779
            ],
            [
              106.83280929925608,
              -7.101092514171084
            ],
            [
              106.8326529815518,
              -7.100940393982306
            ],
            [
              106.83256836056718,
              -7.1008749928083805
            ],
            [
              106.83249789622708,
              -7.100835685207667
            ],
            [
              106.83243519082035,
              -7.100813321436344
            ],
            [
              106.83234117161885,
              -7.10076396596551
            ],
            [
              106.83226218078791,
              -7.100709702248689
            ],
            [
              106.8322020601091,
              -7.1006787601809735
            ],
            [
              106.83211766319901,
              -7.100653576614179
            ],
            [
              106.83202733336319,
              -7.100644141166284
            ],
            [
              106.8319264296144,
              -7.100638449449149
            ],
            [
              106.83183432072653,
              -7.1006362562094765
            ],
            [
              106.83175495016835,
              -7.100642988985094
            ],
            [
              106.8316753699506,
              -7.10066370184855
            ],
            [
              106.83162128723379,
              -7.1007041176314445
            ],
            [
              106.83156794728878,
              -7.100780879054767
            ],
            [
              106.83155177975159,
              -7.100811848357617
            ],
            [
              106.83152142316618,
              -7.100871609974624
            ],
            [
              106.83150883559345,
              -7.100934511787811
            ],
            [
              106.83149510921358,
              -7.101013362935384
            ],
            [
              106.8314827585027,
              -7.101084311550225
            ],
            [
              106.83147090069734,
              -7.101122632673621
            ],
            [
              106.8314573603518,
              -7.101166391293202
            ],
            [
              106.83142900635887,
              -7.101199510059478
            ],
            [
              106.83137694874405,
              -7.101228141595667
            ],
            [
              106.83131136961886,
              -7.101241074403179
            ],
            [
              106.83124248089447,
              -7.101261759946341
            ],
            [
              106.83121269245093,
              -7.101279144589732
            ],
            [
              106.83118248553295,
              -7.1012981219419915
            ],
            [
              106.83111132642593,
              -7.101374402526905
            ],
            [
              106.83104224653843,
              -7.101457340120874
            ],
            [
              106.83096471498516,
              -7.101558464358446
            ],
            [
              106.83088532770246,
              -7.101683519559142
            ],
            [
              106.83083948550119,
              -7.101767884743925
            ],
            [
              106.83077688019077,
              -7.101789793318989
            ],
            [
              106.8306922337665,
              -7.101783184054111
            ],
            [
              106.83059681450592,
              -7.101743655136464
            ],
            [
              106.83055084674358,
              -7.101707403736212
            ],
            [
              106.8304863260873,
              -7.10165638527239
            ],
            [
              106.83043261262155,
              -7.101609869513951
            ],
            [
              106.83039499495112,
              -7.101566117520379
            ],
            [
              106.83035179962907,
              -7.101499577161051
            ],
            [
              106.83031033286736,
              -7.101406579366425
            ],
            [
              106.8302684399566,
              -7.1013142064257275
            ],
            [
              106.83021997417396,
              -7.101252663401501
            ],
            [
              106.83017684704505,
              -7.1011984852174
            ],
            [
              106.83015057461225,
              -7.101177462277822
            ],
            [
              106.8301046716544,
              -7.101142033770845
            ],
            [
              106.83001164938169,
              -7.10110091825584
            ],
            [
              106.82988473124142,
              -7.10110013892455
            ],
            [
              106.82985992120052,
              -7.101108246540989
            ],
            [
              106.82979206050891,
              -7.101132795448588
            ],
            [
              106.8297210162942,
              -7.101161171220884
            ],
            [
              106.82959142182675,
              -7.101199937808566
            ],
            [
              106.82946146786149,
              -7.101138617744649
            ],
            [
              106.82944731702844,
              -7.101119147724088
            ],
            [
              106.82940553432832,
              -7.101061659219039
            ],
            [
              106.82937424214013,
              -7.101054802142472
            ],
            [
              106.8293835611305,
              -7.1010775947276565
            ],
            [
              106.82938516176662,
              -7.10119052885552
            ],
            [
              106.82938286964506,
              -7.101305207327545
            ],
            [
              106.82937267173213,
              -7.101376425650326
            ],
            [
              106.82934723412768,
              -7.101474371969239
            ],
            [
              106.8293169370148,
              -7.1015607426436675
            ],
            [
              106.82927745032875,
              -7.1015982938014535
            ],
            [
              106.82922276381824,
              -7.101626490416754
            ],
            [
              106.82916716043215,
              -7.10163801654907
            ],
            [
              106.82914160884684,
              -7.101641713158228
            ],
            [
              106.82907278500997,
              -7.101680491011385
            ],
            [
              106.82904616817396,
              -7.101708813393898
            ],
            [
              106.82903099037632,
              -7.101747407215864
            ],
            [
              106.82902107748676,
              -7.101825794710691
            ],
            [
              106.82902522530411,
              -7.10189678899558
            ],
            [
              106.82903761755283,
              -7.101966632814099
            ],
            [
              106.8291110796518,
              -7.102160223946326
            ],
            [
              106.82921755247247,
              -7.102240997867301
            ],
            [
              106.82926944136184,
              -7.102265882709832
            ],
            [
              106.82934739233687,
              -7.102332242301751
            ],
            [
              106.82941797133313,
              -7.102415942789764
            ],
            [
              106.82948450013089,
              -7.10253003511949
            ],
            [
              106.82948327984992,
              -7.102647268194258
            ],
            [
              106.8294854391469,
              -7.102714861704249
            ],
            [
              106.82950006322865,
              -7.102779393814156
            ],
            [
              106.82952553196274,
              -7.102816561512541
            ],
            [
              106.82957899005413,
              -7.10286993633084
            ],
            [
              106.82967483891991,
              -7.102933501244887
            ],
            [
              106.82973604476452,
              -7.102967976993839
            ],
            [
              106.82976037676964,
              -7.102995635503235
            ],
            [
              106.82979032265712,
              -7.10306467857419
            ],
            [
              106.82980191512067,
              -7.1031288161402255
            ],
            [
              106.8297940209021,
              -7.103190938805797
            ],
            [
              106.82973256903401,
              -7.1032811988850115
            ],
            [
              106.8296632435539,
              -7.10335318299794
            ],
            [
              106.82963135164631,
              -7.103399661612868
            ],
            [
              106.82959648423324,
              -7.103467347032648
            ],
            [
              106.82957689856013,
              -7.103532772369446
            ],
            [
              106.82957104948264,
              -7.103638627874159
            ],
            [
              106.82959335753726,
              -7.103772386516817
            ],
            [
              106.82966451868114,
              -7.103906841887775
            ],
            [
              106.82975810162547,
              -7.10397572754409
            ],
            [
              106.82982900770371,
              -7.104040011638587
            ],
            [
              106.82981413730148,
              -7.104160890268673
            ],
            [
              106.82969547142945,
              -7.104260341911186
            ],
            [
              106.82960135325409,
              -7.1043167807558465
            ],
            [
              106.82949880807828,
              -7.10435535904664
            ],
            [
              106.82938219110093,
              -7.104389737517711
            ],
            [
              106.82927790793494,
              -7.104413434524013
            ],
            [
              106.82920435796146,
              -7.1044360605266155
            ],
            [
              106.82911980913532,
              -7.104478548387022
            ],
            [
              106.82903450351967,
              -7.104533161194975
            ],
            [
              106.82897856363522,
              -7.104554209397311
            ],
            [
              106.828873061853,
              -7.104556317969626
            ],
            [
              106.82879400434662,
              -7.10452832166533
            ],
            [
              106.82862249777826,
              -7.104461342902182
            ],
            [
              106.828551297166,
              -7.104453321116143
            ],
            [
              106.82844822687653,
              -7.104465209557684
            ],
            [
              106.82832480239028,
              -7.104501615228418
            ],
            [
              106.82816797822213,
              -7.104572392915722
            ],
            [
              106.82805159697885,
              -7.104659806639999
            ],
            [
              106.82793505429092,
              -7.10474535788305
            ],
            [
              106.82785940548193,
              -7.104823476141525
            ],
            [
              106.82780554452683,
              -7.104912655930589
            ],
            [
              106.82777721363668,
              -7.105004487261641
            ],
            [
              106.82778315938388,
              -7.105095597613329
            ],
            [
              106.82781681624192,
              -7.105140057647232
            ],
            [
              106.82783084184514,
              -7.105170647251093
            ],
            [
              106.82787986804277,
              -7.1052840924595495
            ],
            [
              106.82792011482714,
              -7.105390717262214
            ],
            [
              106.82793443183536,
              -7.105475998030898
            ],
            [
              106.82794779705833,
              -7.105583126634034
            ],
            [
              106.82797127707973,
              -7.1057417239512475
            ],
            [
              106.82801388988759,
              -7.105915743133456
            ],
            [
              106.82807776982025,
              -7.106138517035924
            ],
            [
              106.82811923788199,
              -7.106262261829748
            ],
            [
              106.82815546875044,
              -7.1063414293991665
            ],
            [
              106.82818572139614,
              -7.1063991910993005
            ],
            [
              106.82818901857813,
              -7.1064893960516295
            ],
            [
              106.82816110301769,
              -7.1065649481209645
            ],
            [
              106.82811892112662,
              -7.1065986056421035
            ],
            [
              106.82805626085346,
              -7.10661823469133
            ],
            [
              106.82798250930715,
              -7.1066367362305245
            ],
            [
              106.82792940744227,
              -7.1066546504486885
            ],
            [
              106.82789156026942,
              -7.106673740229096
            ],
            [
              106.82786885459674,
              -7.106709694047246
            ],
            [
              106.82786727429492,
              -7.106750591230771
            ],
            [
              106.82786947444997,
              -7.106830566489699
            ],
            [
              106.82788862055679,
              -7.106948904293987
            ],
            [
              106.82791122149685,
              -7.107089504649139
            ],
            [
              106.82795009631057,
              -7.107253323871942
            ],
            [
              106.82796547760486,
              -7.107297340806668
            ],
            [
              106.8280090134523,
              -7.107421928079967
            ],
            [
              106.82804742537682,
              -7.107528653256431
            ],
            [
              106.82805712586385,
              -7.107600344613111
            ],
            [
              106.82822183455397,
              -7.107558304560993
            ],
            [
              106.8284370837468,
              -7.107485688844031
            ],
            [
              106.82855682425713,
              -7.107485216384595
            ],
            [
              106.82872457448721,
              -7.107513261028538
            ],
            [
              106.82887803155583,
              -7.107560499738482
            ],
            [
              106.82894980016077,
              -7.10754107877164
            ],
            [
              106.82903101552252,
              -7.10748812949746
            ],
            [
              106.82910242452444,
              -7.107377805756598
            ],
            [
              106.82916402715863,
              -7.107210107557812
            ],
            [
              106.82922085907316,
              -7.107047212621064
            ],
            [
              106.82924914254176,
              -7.106932274666963
            ],
            [
              106.8292866645682,
              -7.106731180512019
            ],
            [
              106.82934824817762,
              -7.106558697968316
            ],
            [
              106.82941021027113,
              -7.106481902524794
            ],
            [
              106.82951047027086,
              -7.106400171477032
            ],
            [
              106.82967316545583,
              -7.1063612538116745
            ],
            [
              106.8298455344592,
              -7.106346220046427
            ],
            [
              106.82996033352578,
              -7.106307491381577
            ],
            [
              106.83014213021679,
              -7.106254144868961
            ],
            [
              106.83024733107987,
              -7.106210669616278
            ],
            [
              106.83031412043154,
              -7.106143423892947
            ],
            [
              106.83033767081585,
              -7.106042857922461
            ],
            [
              106.83037536278106,
              -7.105884822983194
            ],
            [
              106.83040377848751,
              -7.105803375511149
            ],
            [
              106.83034151371405,
              -7.10580362138411
            ],
            [
              106.83021221349453,
              -7.105808916369495
            ],
            [
              106.83007316368686,
              -7.1057711899609926
            ],
            [
              106.82993884670233,
              -7.105719091535379
            ],
            [
              106.82982349885248,
              -7.105619073894855
            ],
            [
              106.82970807534524,
              -7.105499918795296
            ],
            [
              106.82963108221465,
              -7.105409318543657
            ],
            [
              106.82958305378187,
              -7.105376017104728
            ],
            [
              106.8295256921781,
              -7.105404950078176
            ],
            [
              106.82944445827671,
              -7.105453114980619
            ],
            [
              106.8293965623078,
              -7.105453304006045
            ],
            [
              106.82928630696516,
              -7.105429816968627
            ],
            [
              106.82917124310973,
              -7.1054015644462085
            ],
            [
              106.82910418875007,
              -7.105401829039003
            ],
            [
              106.82899917706702,
              -7.105493147575869
            ],
            [
              106.82893250105644,
              -7.105589099274355
            ],
            [
              106.82891370210938,
              -7.10568007763679
            ],
            [
              106.82889978735464,
              -7.105794958884
            ],
            [
              106.82889558423994,
              -7.105943292830141
            ],
            [
              106.82883833602207,
              -7.106000931885837
            ],
            [
              106.8287328133876,
              -7.105963072774943
            ],
            [
              106.82864595735556,
              -7.105800744769279
            ],
            [
              106.82859758844124,
              -7.105681324791067
            ],
            [
              106.8285587420153,
              -7.1055475139409845
            ],
            [
              106.82861095474212,
              -7.1054276971744335
            ],
            [
              106.82864891214552,
              -7.105336643234091
            ],
            [
              106.82873995233238,
              -7.105345852947971
            ],
            [
              106.82883101143523,
              -7.105359846999711
            ],
            [
              106.82885456216528,
              -7.105259281029168
            ],
            [
              106.82880170635755,
              -7.105216429673272
            ],
            [
              106.82867636352452,
              -7.10501119358355
            ],
            [
              106.82871422632803,
              -7.104896217862968
            ],
            [
              106.8289111482144,
              -7.1050341895161555
            ],
            [
              106.82906943182957,
              -7.105090978188605
            ],
            [
              106.82919413155129,
              -7.105133546026678
            ],
            [
              106.829385847763,
              -7.105166280499326
            ],
            [
              106.82943351663202,
              -7.1051086792214475
            ],
            [
              106.82953381423722,
              -7.1050365169509195
            ],
            [
              106.82962483541229,
              -7.1050409421469825
            ],
            [
              106.82972556824573,
              -7.105078819995913
            ],
            [
              106.82982679318545,
              -7.105241091023488
            ],
            [
              106.82988941752654,
              -7.1053317479619595
            ],
            [
              106.82996169680003,
              -7.1054415044838635
            ],
            [
              106.83005296412652,
              -7.1055081261680995
            ],
            [
              106.83024964045485,
              -7.105583900493638
            ],
            [
              106.8304317586986,
              -7.1056118879366394
            ],
            [
              106.83060899267076,
              -7.105615972458567
            ],
            [
              106.83072398083051,
              -7.105625087181417
            ],
            [
              106.830829351921,
              -7.1056246710073045
            ],
            [
              106.83094416961835,
              -7.105590726515308
            ],
            [
              106.8311355260813,
              -7.105532557524725
            ],
            [
              106.8311880032462,
              -7.105479721543222
            ],
            [
              106.83120689643187,
              -7.105412664955551
            ],
            [
              106.83118696147794,
              -7.105216582274434
            ],
            [
              106.83115273355892,
              -7.105039693746647
            ],
            [
              106.83108959771549,
              -7.104819859562186
            ],
            [
              106.83107899587269,
              -7.104561542456896
            ],
            [
              106.83107852242674,
              -7.104441933686711
            ],
            [
              106.83112215410469,
              -7.104361468364554
            ],
            [
              106.83131388885435,
              -7.1043989864375305
            ],
            [
              106.83135574158909,
              -7.104485472364137
            ],
            [
              106.83132425726482,
              -7.104631920396735
            ],
            [
              106.83132934990218,
              -7.1047084510782605
            ],
            [
              106.83135045202378,
              -7.104796082173716
            ],
            [
              106.831333237471,
              -7.104883864633764
            ],
            [
              106.83134024361298,
              -7.105040447129612
            ],
            [
              106.8313920397416,
              -7.1052188610271
            ],
            [
              106.83141634761148,
              -7.105309669060163
            ],
            [
              106.83141030247543,
              -7.105395812585875
            ],
            [
              106.83140424471198,
              -7.105478766545244
            ],
            [
              106.83142218543149,
              -7.105574384153703
            ],
            [
              106.83147191785773,
              -7.105634790368478
            ],
            [
              106.83152004429355,
              -7.1056928107079536
            ],
            [
              106.83161119182921,
              -7.105729131136622
            ],
            [
              106.83176290650732,
              -7.10573969527198
            ],
            [
              106.83186998147336,
              -7.105766383853306
            ],
            [
              106.83200090334232,
              -7.105767461233797
            ],
            [
              106.83208704021129,
              -7.105747983093897
            ],
            [
              106.83213172412452,
              -7.105743022055954
            ],
            [
              106.8321909031643,
              -7.1057698998688235
            ],
            [
              106.83222944734439,
              -7.105827160580615
            ],
            [
              106.83224890265691,
              -7.105902039625705
            ],
            [
              106.83227642908946,
              -7.1059992140664665
            ],
            [
              106.83228804708301,
              -7.106110804657083
            ],
            [
              106.83232508323792,
              -7.106190398614326
            ],
            [
              106.8323798013208,
              -7.106300224000081
            ],
            [
              106.83246634835484,
              -7.106384247135769
            ],
            [
              106.8325223597064,
              -7.106417516632669
            ],
            [
              106.83257676821245,
              -7.106449197651144
            ],
            [
              106.83261367173934,
              -7.106495301140684
            ],
            [
              106.83262828068783,
              -7.106555846044455
            ],
            [
              106.83262853348091,
              -7.106619637327296
            ],
            [
              106.83263987985268,
              -7.106662652252236
            ],
            [
              106.83264979401443,
              -7.106747137822455
            ],
            [
              106.83270111694661,
              -7.106805942733891
            ],
            [
              106.83276843683677,
              -7.106872658409861
            ],
            [
              106.8328438152689,
              -7.106958479883419
            ],
            [
              106.83287439594305,
              -7.107020556408227
            ],
            [
              106.8328905698868,
              -7.107073121066233
            ],
            [
              106.8329305654328,
              -7.107093695371789
            ],
            [
              106.83304721993964,
              -7.107120345695481
            ],
            [
              106.83314963840466,
              -7.107180543236024
            ],
            [
              106.83321538084361,
              -7.107252049475228
            ],
            [
              106.83326498091576,
              -7.107278964976692
            ],
            [
              106.8333368692563,
              -7.107289844234476
            ],
            [
              106.83344055551079,
              -7.107267106747642
            ],
            [
              106.83351707536399,
              -7.107238097497183
            ],
            [
              106.83357127533827,
              -7.107217150576644
            ],
            [
              106.83364471593117,
              -7.107216860002726
            ],
            [
              106.83372767881056,
              -7.107202178484472
            ],
            [
              106.83381467250587,
              -7.107157179688846
            ],
            [
              106.83388782846998,
              -7.107085123938087
            ],
            [
              106.8339706142116,
              -7.107025788520858
            ],
            [
              106.8340359519136,
              -7.1069952286473415
            ],
            [
              106.83414133577085,
              -7.1069980012020135
            ],
            [
              106.83424030818696,
              -7.106994419885283
            ],
            [
              106.83432809853765,
              -7.1069892880011585
            ],
            [
              106.83446061711439,
              -7.106990358277099
            ],
            [
              106.83454203397281,
              -7.106988441192061
            ],
            [
              106.8345996103918,
              -7.107013730158701
            ],
            [
              106.83464765823473,
              -7.10705181527995
            ],
            [
              106.8347797402014,
              -7.10694284563184
            ],
            [
              106.8348404590625,
              -7.106955363684946
            ],
            [
              106.8349427826946,
              -7.106991639079369
            ],
            [
              106.83509307193358,
              -7.107045267374473
            ],
            [
              106.83521878725038,
              -7.107102182534795
            ],
            [
              106.83524765142697,
              -7.1071339643267635
            ],
            [
              106.83527179563289,
              -7.1071833076596524
            ],
            [
              106.8352910426427,
              -7.107205558703943
            ],
            [
              106.83535963026576,
              -7.107189339030802
            ],
            [
              106.83542809128174,
              -7.107141223758353
            ],
            [
              106.83551226439927,
              -7.107029254068847
            ],
            [
              106.83558216364749,
              -7.106941262975359
            ],
            [
              106.8356458793202,
              -7.10690433011098
            ],
            [
              106.83575278996418,
              -7.106889553406514
            ],
            [
              106.83583107698975,
              -7.106903596540394
            ],
            [
              106.83592226923031,
              -7.106951079424671
            ],
            [
              106.83600386963231,
              -7.106995410677445
            ],
            [
              106.8360982486338,
              -7.107041286088903
            ],
            [
              106.83615877752797,
              -7.107005960590471
            ],
            [
              106.83620157992148,
              -7.1069292404178235
            ],
            [
              106.83622683312684,
              -7.106855779383311
            ],
            [
              106.83623599437075,
              -7.106750486028022
            ],
            [
              106.83626432664474,
              -7.106648306325579
            ],
            [
              106.83635961817647,
              -7.106521939268482
            ],
            [
              106.83643570064682,
              -7.106382889885518
            ],
            [
              106.83647828764067,
              -7.106251947238261
            ],
            [
              106.83652097911079,
              -7.1061473184396355
            ],
            [
              106.83653164184979,
              -7.106018097091311
            ],
            [
              106.83653580449466,
              -7.105860195031531
            ],
            [
              106.83654005580586,
              -7.105724619872138
            ],
            [
              106.83653649546824,
              -7.105632135363006
            ],
            [
              106.8365633007968,
              -7.1055475045623595
            ],
            [
              106.83658986596997,
              -7.105482809759983
            ],
            [
              106.83661346557008,
              -7.105395002054465
            ],
            [
              106.83660990523738,
              -7.105302517547784
            ],
            [
              106.83658090815834,
              -7.105237245482119
            ],
            [
              106.83654731147716,
              -7.105219835747283
            ],
            [
              106.8365026151059,
              -7.105221607628821
            ],
            [
              106.83644370196888,
              -7.105261711119543
            ],
            [
              106.83636096123702,
              -7.105332210272442
            ],
            [
              106.83625898619194,
              -7.105383647962655
            ],
            [
              106.83617310300218,
              -7.105466917974971
            ],
            [
              106.8359961734464,
              -7.1055393849778135
            ],
            [
              106.8359052600452,
              -7.105562072320876
            ],
            [
              106.83583657773937,
              -7.105554370320111
            ],
            [
              106.83571827017785,
              -7.105513373945503
            ],
            [
              106.83560945318408,
              -7.105450012689654
            ],
            [
              106.83551514418697,
              -7.105421679655046
            ],
            [
              106.83541286522008,
              -7.105396567764785
            ],
            [
              106.83534583640888,
              -7.105403212378825
            ],
            [
              106.83524697830005,
              -7.105435499878954
            ],
            [
              106.83516247626228,
              -7.10546454091635
            ],
            [
              106.83507315299198,
              -7.105485627002284
            ],
            [
              106.83497365918178,
              -7.10543817671537
            ],
            [
              106.83490024423268,
              -7.105444846547883
            ],
            [
              106.83479667239321,
              -7.10549629028374
            ],
            [
              106.83468978095078,
              -7.105515851034472
            ],
            [
              106.8345556599606,
              -7.105513192254064
            ],
            [
              106.8343879233247,
              -7.105488339185756
            ],
            [
              106.83427457616023,
              -7.105490382529243
            ],
            [
              106.83410377294398,
              -7.105497437603577
            ],
            [
              106.83396327212901,
              -7.105496398698374
            ],
            [
              106.83388983182238,
              -7.105496689252789
            ],
            [
              106.83381014450323,
              -7.105532090243494
            ],
            [
              106.83372727675679,
              -7.105570693417438
            ],
            [
              106.83362359089212,
              -7.10559343086896
            ],
            [
              106.83353410307859,
              -7.105573052367914
            ],
            [
              106.83347156028682,
              -7.10550312827227
            ],
            [
              106.83344891176553,
              -7.105428261953119
            ],
            [
              106.83345496283528,
              -7.105343713279457
            ],
            [
              106.83349627027692,
              -7.105292516092759
            ],
            [
              106.83356477558021,
              -7.105255564583536
            ],
            [
              106.83363808942008,
              -7.105223378465246
            ],
            [
              106.8337338052119,
              -7.105203862171328
            ],
            [
              106.8338342916049,
              -7.1051795425690525
            ],
            [
              106.8339730440495,
              -7.105142313111331
            ],
            [
              106.83406082142275,
              -7.1051339918050065
            ],
            [
              106.83416595077635,
              -7.105110792563409
            ],
            [
              106.83417066750486,
              -7.105087399650107
            ],
            [
              106.83418154694586,
              -7.105057804440536
            ],
            [
              106.83418697210956,
              -7.105040047619199
            ],
            [
              106.83419076731255,
              -7.105027625737363
            ],
            [
              106.83419067625003,
              -7.105004660940086
            ],
            [
              106.83417549497422,
              -7.1049810388658505
            ],
            [
              106.83416754118709,
              -7.10496815198226
            ],
            [
              106.83416901348288,
              -7.104959492612076
            ],
            [
              106.83417970803092,
              -7.1049371270754405
            ],
            [
              106.83419088282452,
              -7.104913252256106
            ],
            [
              106.83419366068513,
              -7.104899699951137
            ],
            [
              106.83419814701199,
              -7.104883298411543
            ],
            [
              106.83419510768267,
              -7.104865465549762
            ],
            [
              106.83419650499782,
              -7.104844473805865
            ],
            [
              106.8342045454749,
              -7.104806537965615
            ],
            [
              106.8342116259099,
              -7.104755045183196
            ],
            [
              106.83421167197545,
              -7.10472215435007
            ],
            [
              106.83421983611825,
              -7.104680016352679
            ],
            [
              106.83422906202783,
              -7.104640063966628
            ],
            [
              106.83423526382889,
              -7.104613207344605
            ],
            [
              106.8342359699352,
              -7.104578097119381
            ],
            [
              106.8342355408505,
              -7.104522318611497
            ],
            [
              106.83423520715286,
              -7.104477533866829
            ],
            [
              106.83423488014587,
              -7.1044148394360915
            ],
            [
              106.8342347811074,
              -7.104389861636623
            ],
            [
              106.83423667591961,
              -7.104354123788469
            ],
            [
              106.83423448012886,
              -7.1043139533692345
            ],
            [
              106.83422148616037,
              -7.104298215779774
            ],
            [
              106.83421065011596,
              -7.10428318753952
            ],
            [
              106.83421346266225,
              -7.104243881886438
            ],
            [
              106.83421921349895,
              -7.104207347185261
            ],
            [
              106.83420806859326,
              -7.1041858015744275
            ],
            [
              106.83419216085485,
              -7.104168362348187
            ],
            [
              106.83417022888507,
              -7.104139460758115
            ],
            [
              106.83414752147053,
              -7.104125931849898
            ],
            [
              106.83406167284002,
              -7.104097742747277
            ],
            [
              106.8340283584461,
              -7.104088773487467
            ],
            [
              106.83400529463489,
              -7.104063147030493
            ],
            [
              106.83399376272935,
              -7.104033676605112
            ],
            [
              106.83399248140645,
              -7.104017019408161
            ],
            [
              106.83399141190003,
              -7.103977767442198
            ],
            [
              106.83399238744828,
              -7.1039686325592895
            ],
            [
              106.83397466970725,
              -7.103948399906623
            ],
            [
              106.8339594539955,
              -7.103947375313757
            ],
            [
              106.83396797017501,
              -7.103925404824862
            ],
            [
              106.8339861934333,
              -7.103910978078754
            ],
            [
              106.83400318282509,
              -7.103891378584905
            ],
            [
              106.83400318282509,
              -7.103858064190904
            ],
            [
              106.83399549488793,
              -7.103831156411259
            ],
            [
              106.83399036959663,
              -7.103810655245686
            ],
            [
              106.83398908827375,
              -7.103793998048716
            ],
            [
              106.8339980575337,
              -7.1037658089462115
            ],
            [
              106.83401204530797,
              -7.103754597371351
            ],
            [
              106.83403340068874,
              -7.103754597371351
            ],
            [
              106.83404792234762,
              -7.103747763649479
            ],
            [
              106.83405219342376,
              -7.103721282977344
            ],
            [
              106.83405561028468,
              -7.103703344457523
            ],
            [
              106.8340795283111,
              -7.1036879685834355
            ],
            [
              106.83410344633756,
              -7.103687114368237
            ],
            [
              106.83411882221166,
              -7.103668321633126
            ],
            [
              106.83413334387055,
              -7.103646966252401
            ],
            [
              106.8341410318076,
              -7.103632444593566
            ],
            [
              106.83416153297317,
              -7.103613651858492
            ],
            [
              106.83417790680842,
              -7.103605392119188
            ],
            [
              106.83417623910879,
              -7.103555134500951
            ],
            [
              106.83417223584242,
              -7.103527508666351
            ],
            [
              106.83416953059191,
              -7.1035146396292985
            ],
            [
              106.83416604072049,
              -7.103504280905129
            ],
            [
              106.83417465335438,
              -7.1034767275512145
            ],
            [
              106.83418832891986,
              -7.10346335137157
            ],
            [
              106.83419892947211,
              -7.1034591780210405
            ],
            [
              106.83422095642241,
              -7.1034590908859885
            ],
            [
              106.83424561242227,
              -7.10345238691476
            ],
            [
              106.83425975585072,
              -7.103435953254288
            ],
            [
              106.83425931799628,
              -7.103419758430317
            ],
            [
              106.83425879277384,
              -7.103400332136603
            ],
            [
              106.83427377516276,
              -7.103370397411398
            ],
            [
              106.83428773201994,
              -7.103348448622295
            ],
            [
              106.83430219537502,
              -7.103325703304402
            ],
            [
              106.83430832722318,
              -7.1033004731187415
            ],
            [
              106.83431004480241,
              -7.103290326999744
            ],
            [
              106.83435801978725,
              -7.103279970155494
            ],
            [
              106.83433813873026,
              -7.103227597271332
            ],
            [
              106.83428296813545,
              -7.10321946383767
            ],
            [
              106.83424142919401,
              -7.103216162307242
            ],
            [
              106.83421380296566,
              -7.103214730901233
            ],
            [
              106.834183130039,
              -7.1032056825597065
            ],
            [
              106.8341745019713,
              -7.103170077256901
            ],
            [
              106.83417409889988,
              -7.103137986299255
            ],
            [
              106.8341738885436,
              -7.103084148950126
            ],
            [
              106.83417236082057,
              -7.103038272113343
            ],
            [
              106.83417010357367,
              -7.102990497239968
            ],
            [
              106.83416911193551,
              -7.102973858137288
            ],
            [
              106.83416945026629,
              -7.102964810457423
            ],
            [
              106.83417022525705,
              -7.102931446285023
            ],
            [
              106.83417090707624,
              -7.10290750221813
            ],
            [
              106.83417016818643,
              -7.102890098759607
            ],
            [
              106.83418351899363,
              -7.1028484705244415
            ],
            [
              106.8341882709131,
              -7.102807647983834
            ],
            [
              106.83418975694978,
              -7.102784924711404
            ],
            [
              106.83419005835628,
              -7.102751539818386
            ],
            [
              106.8341774699924,
              -7.102741187581657
            ],
            [
              106.83414682986796,
              -7.102744657708968
            ],
            [
              106.83412239035832,
              -7.102741405438952
            ],
            [
              106.83410100396488,
              -7.102740876644343
            ],
            [
              106.83406512372075,
              -7.102727555522267
            ],
            [
              106.83405496346839,
              -7.102711003290042
            ],
            [
              106.83405307786286,
              -7.102687509920041
            ],
            [
              106.8340547880206,
              -7.102643425365215
            ],
            [
              106.83405729373906,
              -7.102600351562356
            ],
            [
              106.83405881654261,
              -7.102572102401753
            ],
            [
              106.83405769784954,
              -7.102542159679478
            ],
            [
              106.83404337110274,
              -7.102532459240912
            ],
            [
              106.83403052335332,
              -7.102537547629819
            ],
            [
              106.83401245329584,
              -7.10254564238013
            ],
            [
              106.83399138708903,
              -7.102558500640706
            ],
            [
              106.8339693269904,
              -7.1025695921761205
            ],
            [
              106.83396142446705,
              -7.102569623429264
            ],
            [
              106.83393561757653,
              -7.102535587086816
            ],
            [
              106.83390008382993,
              -7.102510593641795
            ],
            [
              106.83384376190762,
              -7.102489710673387
            ],
            [
              106.83381689616965,
              -7.102469119981205
            ],
            [
              106.83381205895172,
              -7.102466631280405
            ],
            [
              106.83379581686192,
              -7.102477461107491
            ],
            [
              106.83378847609559,
              -7.102480807581418
            ],
            [
              106.83377404062509,
              -7.102481614042467
            ],
            [
              106.83376918157256,
              -7.1024641697858435
            ],
            [
              106.8337755857787,
              -7.102446951601892
            ],
            [
              106.83379994114442,
              -7.1024303182912485
            ],
            [
              106.83380823203854,
              -7.102432240920528
            ],
            [
              106.83381493742812,
              -7.102424003704089
            ],
            [
              106.83380752082422,
              -7.1024024451776535
            ],
            [
              106.8338064344695,
              -7.102384393616982
            ],
            [
              106.83379482604757,
              -7.10237436118395
            ],
            [
              106.83376487799889,
              -7.102365645213064
            ],
            [
              106.83375156557206,
              -7.102339804414419
            ],
            [
              106.83375573920348,
              -7.10232157764092
            ],
            [
              106.8337565685063,
              -7.102317955970648
            ],
            [
              106.8336522614644,
              -7.102304279246981
            ],
            [
              106.83347979710993,
              -7.102294754377185
            ],
            [
              106.8333367592222,
              -7.1022978715639935
            ],
            [
              106.83321800355846,
              -7.102304720254892
            ],
            [
              106.83313507054015,
              -7.102326737460761
            ],
            [
              106.83303688674356,
              -7.102367952619268
            ],
            [
              106.83297958896328,
              -7.102412833693546
            ],
            [
              106.83291973168735,
              -7.102456449034228
            ],
            [
              106.83284449728134,
              -7.102487366689233
            ],
            [
              106.83277547207298,
              -7.102473605193283
            ],
            [
              106.8327343687397,
              -7.102415078734314
            ],
            [
              106.83266110766388,
              -7.102299266291429
            ],
            [
              106.83265200546964,
              -7.102258475194912
            ],
            [
              106.83269270454065,
              -7.102214935599982
            ],
            [
              106.8327296477555,
              -7.102190548533162
            ],
            [
              106.83269343099467,
              -7.102075865534528
            ],
            [
              106.83265218119197,
              -7.101980340104804
            ],
            [
              106.83264803376414,
              -7.1019006161276055
            ],
            [
              106.83267693473647,
              -7.10178057241144
            ],
            [
              106.8327492862066,
              -7.1016667362243435
            ],
            [
              106.83277049861297,
              -7.101540343664962
            ],
            [
              106.8328056466279,
              -7.101465807013059
            ]
          ]
        ]
      }
    }
  ]
}