{
  "type": "FeatureCollection",
  "features": [
    {
      "type": "Feature",
      "properties": {
        "name": "Kebon Kopi Organik Kadatuan, Puntang",
        "area_ha": 25,
        "crop": "Arabica Coffee",
        "system": "Organic Agroforestry"
      },
      "geometry": {
        "type": "Polygon",
        "coordinates": [[
          [107.5691, -7.1080],
          [107.5731, -7.1080],
          [107.5731, -7.1040],
          [107.5691, -7.1040],
          [107.5691, -7.1080]
        ]]
      }
    }
  ]
}
