{
  "type": "FeatureCollection",
  "name": "land_ownership",
  "features": [
    {
      "type": "Feature",
      "properties": {
        "name": "Pak Rusmana",
        "color": "#E74C3C",
        "centroid_lng": 107.571133,
        "centroid_lat": -7.105279000000001,
        "area_rows": "15-19",
        "area_cols": "0-19"
      },
      "geometry": {
        "type": "Polygon",
        "coordinates": [
          [
            [
              107.570133,
              -7.105529000000001
            ],
            [
              107.572133,
              -7.105529000000001
            ],
            [
              107.572133,
              -7.105029000000001
            ],
            [
              107.570133,
              -7.105029000000001
            ],
            [
              107.570133,
              -7.105529000000001
            ]
          ]
        ]
      }
    },
    {
      "type": "Feature",
      "properties": {
        "name": "Pak Ido",
        "color": "#E67E22",
        "centroid_lng": 107.571133,
        "centroid_lat": -7.105779,
        "area_rows": "10-14",
        "area_cols": "0-19"
      },
      "geometry": {
        "type": "Polygon",
        "coordinates": [
          [
            [
              107.570133,
              -7.106029
            ],
            [
              107.572133,
              -7.106029
            ],
            [
              107.572133,
              -7.105529000000001
            ],
            [
              107.570133,
              -7.105529000000001
            ],
            [
              107.570133,
              -7.106029
            ]
          ]
        ]
      }
    },
    {
      "type": "Feature",
      "properties": {
        "name": "Pak Pena",
        "color": "#27AE60",
        "centroid_lng": 107.571133,
        "centroid_lat": -7.106279000000001,
        "area_rows": "5-9",
        "area_cols": "0-19"
      },
      "geometry": {
        "type": "Polygon",
        "coordinates": [
          [
            [
              107.570133,
              -7.106529000000001
            ],
            [
              107.572133,
              -7.106529000000001
            ],
            [
              107.572133,
              -7.106029
            ],
            [
              107.570133,
              -7.106029
            ],
            [
              107.570133,
              -7.106529000000001
            ]
          ]
        ]
      }
    },
    {
      "type": "Feature",
      "properties": {
        "name": "Pak Undang",
        "color": "#2980B9",
        "centroid_lng": 107.57163299999999,
        "centroid_lat": -7.106779000000001,
        "area_rows": "0-4",
        "area_cols": "10-19"
      },
      "geometry": {
        "type": "Polygon",
        "coordinates": [
          [
            [
              107.571133,
              -7.107029000000001
            ],
            [
              107.572133,
              -7.107029000000001
            ],
            [
              107.572133,
              -7.106529000000001
            ],
            [
              107.571133,
              -7.106529000000001
            ],
            [
              107.571133,
              -7.107029000000001
            ]
          ]
        ]
      }
    },
    {
      "type": "Feature",
      "properties": {
        "name": "Pak Ade",
        "color": "#8E44AD",
        "centroid_lng": 107.570633,
        "centroid_lat": -7.106779000000001,
        "area_rows": "0-4",
        "area_cols": "0-9"
      },
      "geometry": {
        "type": "Polygon",
        "coordinates": [
          [
            [
              107.570133,
              -7.107029000000001
            ],
            [
              107.571133,
              -7.107029000000001
            ],
            [
              107.571133,
              -7.106529000000001
            ],
            [
              107.570133,
              -7.106529000000001
            ],
            [
              107.570133,
              -7.107029000000001
            ]
          ]
        ]
      }
    }
  ]
}