{
  "type": "FeatureCollection",
  "features": [
    {
      "type": "Feature",
      "id": 0,
      "geometry": {
        "type": "Polygon",
        "coordinates": [
          [
            [
              107.57174660380609,
              -7.103874162662134
            ],
            [
              107.57173564533866,
              -7.103869778150464
            ],
            [
              107.5717220229441,
              -7.103909389850868
            ],
            [
              107.571692133454,
              -7.104014104226962
            ],
            [
              107.57167396136254,
              -7.10408169813898
            ],
            [
              107.57165640087399,
              -7.104140024795672
            ],
            [
              107.57164388861268,
              -7.1042128405323774
            ],
            [
              107.57163807479546,
              -7.104284212035955
            ],
            [
              107.57163937419395,
              -7.1043317640208805
            ],
            [
              107.57163974789972,
              -7.104398965844969
            ],
            [
              107.57163018724972,
              -7.104529299478153
            ],
            [
              107.5716113500872,
              -7.104701476348369
            ],
            [
              107.57158470976785,
              -7.104708823075737
            ],
            [
              107.57143195244257,
              -7.104755990014319
            ],
            [
              107.57127521996897,
              -7.104803178065195
            ],
            [
              107.57128209496595,
              -7.1047290299024555
            ],
            [
              107.57125830687988,
              -7.104739748773001
            ],
            [
              107.57122853220676,
              -7.104745869376691
            ],
            [
              107.57120803034249,
              -7.104751938531697
            ],
            [
              107.57117353005856,
              -7.104742204566889
            ],
            [
              107.57114353633247,
              -7.104670854577504
            ],
            [
              107.57114216312513,
              -7.104652651663581
            ],
            [
              107.57114317608465,
              -7.104606062831206
            ],
            [
              107.57114137243119,
              -7.104586591697896
            ],
            [
              107.57114369973193,
              -7.1045476183140455
            ],
            [
              107.5711528422597,
              -7.104514535416318
            ],
            [
              107.57114979019957,
              -7.104499306868033
            ],
            [
              107.57114869315181,
              -7.104458039000716
            ],
            [
              107.57115155898647,
              -7.104433915902763
            ],
            [
              107.57116030474307,
              -7.104416198169083
            ],
            [
              107.57116041192944,
              -7.104378363117236
            ],
            [
              107.57115938509537,
              -7.104326454653631
            ],
            [
              107.57114752374439,
              -7.104213212283953
            ],
            [
              107.57114622642065,
              -7.104181807645138
            ],
            [
              107.57111689065015,
              -7.104149054787811
            ],
            [
              107.571116685089,
              -7.104112080891572
            ],
            [
              107.57110540063226,
              -7.104024326988178
            ],
            [
              107.57107487896351,
              -7.103971745308964
            ],
            [
              107.57106083549367,
              -7.103931396025224
            ],
            [
              107.5710418945636,
              -7.103897977300093
            ],
            [
              107.57100133216196,
              -7.103878342510153
            ],
            [
              107.57103538742516,
              -7.103921140079004
            ],
            [
              107.57102304080496,
              -7.103958351695938
            ],
            [
              107.5710067208639,
              -7.103991021649804
            ],
            [
              107.57099400566848,
              -7.104027354200731
            ],
            [
              107.57099644658878,
              -7.104080091657512
            ],
            [
              107.57085488538685,
              -7.104253474403219
            ],
            [
              107.57085081143227,
              -7.104313990035029
            ],
            [
              107.57084699238759,
              -7.104370724059757
            ],
            [
              107.57085973837131,
              -7.104418691542556
            ],
            [
              107.5708571920414,
              -7.104456513925958
            ],
            [
              107.57085530216808,
              -7.104495900594156
            ],
            [
              107.57084697082931,
              -7.104528930193561
            ],
            [
              107.5708443663704,
              -7.104531560863761
            ],
            [
              107.57080898653416,
              -7.10462301042992
            ],
            [
              107.57075693142512,
              -7.104649371045904
            ],
            [
              107.57072773178284,
              -7.1046788645378
            ],
            [
              107.57072836588881,
              -7.1047929274357
            ],
            [
              107.57071266896364,
              -7.104903821265019
            ],
            [
              107.5706871129065,
              -7.105001734761218
            ],
            [
              107.57067733081261,
              -7.105025557342789
            ],
            [
              107.57055493336854,
              -7.105021546069829
            ],
            [
              107.57053323971209,
              -7.10509526496625
            ],
            [
              107.57051288792184,
              -7.1051454240849194
            ],
            [
              107.57049266931881,
              -7.1051923643751085
            ],
            [
              107.57047361792206,
              -7.105227777771432
            ],
            [
              107.57049170945835,
              -7.105258765742676
            ],
            [
              107.57048716191979,
              -7.105288936729017
            ],
            [
              107.5705099572008,
              -7.105318014383415
            ],
            [
              107.57055943175946,
              -7.105331768138486
            ],
            [
              107.57050711155958,
              -7.105488329586526
            ],
            [
              107.5705000950066,
              -7.105508717213521
            ],
            [
              107.5704934060854,
              -7.105528152326489
            ],
            [
              107.57047253733106,
              -7.105540977783994
            ],
            [
              107.57042853014012,
              -7.10556894302195
            ],
            [
              107.5703995648259,
              -7.1055820140122705
            ],
            [
              107.57033706265604,
              -7.105577703019896
            ],
            [
              107.57029275036855,
              -7.1055742228420256
            ],
            [
              107.57028412747057,
              -7.105616653495974
            ],
            [
              107.5702718471157,
              -7.105672143985933
            ],
            [
              107.57026036860015,
              -7.105720524202405
            ],
            [
              107.57025495137896,
              -7.105766759744971
            ],
            [
              107.57026623998155,
              -7.105817665143054
            ],
            [
              107.57032502550136,
              -7.1058102232921625
            ],
            [
              107.57035324932593,
              -7.105812185917987
            ],
            [
              107.57035534489239,
              -7.105829163028216
            ],
            [
              107.57034450719152,
              -7.105859204436131
            ],
            [
              107.57034557351508,
              -7.1058711906754315
            ],
            [
              107.57034562998031,
              -7.1059000619030845
            ],
            [
              107.57034824925124,
              -7.105956562321061
            ],
            [
              107.57034997233055,
              -7.1059929485443005
            ],
            [
              107.57036987082606,
              -7.1060381372358945
            ],
            [
              107.57037965198722,
              -7.106044573379487
            ],
            [
              107.57040066803867,
              -7.106058400949905
            ],
            [
              107.57041732772726,
              -7.106058513672049
            ],
            [
              107.57045529685357,
              -7.106092841704841
            ],
            [
              107.57044197167647,
              -7.10611466145872
            ],
            [
              107.57042699291,
              -7.106126915640968
            ],
            [
              107.57041754922503,
              -7.1061346413816695
            ],
            [
              107.57039921049558,
              -7.106139586969899
            ],
            [
              107.57035592626454,
              -7.106152772648519
            ],
            [
              107.57034884652224,
              -7.106164073883876
            ],
            [
              107.57036699020715,
              -7.10617904701853
            ],
            [
              107.57040716901412,
              -7.106206287695268
            ],
            [
              107.57045801465291,
              -7.106247768500415
            ],
            [
              107.57047306627715,
              -7.106249757191816
            ],
            [
              107.57048967105108,
              -7.106251219443716
            ],
            [
              107.57054902712217,
              -7.1062928536424925
            ],
            [
              107.57064969336552,
              -7.106397769141555
            ],
            [
              107.57066253834336,
              -7.106415522531
            ],
            [
              107.57061274506741,
              -7.106476913582934
            ],
            [
              107.57070393266231,
              -7.1065567360792645
            ],
            [
              107.57071449574629,
              -7.106565982909286
            ],
            [
              107.57073718344617,
              -7.106586921459929
            ],
            [
              107.57077421269683,
              -7.106556829609399
            ],
            [
              107.57083895441215,
              -7.106497909467472
            ],
            [
              107.57093836090596,
              -7.106410929460461
            ],
            [
              107.57096171198127,
              -7.106393029457961
            ],
            [
              107.57111154070088,
              -7.106289615036466
            ],
            [
              107.57110089858435,
              -7.10627591701046
            ],
            [
              107.57103905425463,
              -7.106196319463076
            ],
            [
              107.57103759172986,
              -7.106195084082215
            ],
            [
              107.57104234488375,
              -7.106192460463008
            ],
            [
              107.57105424307365,
              -7.1061831224411325
            ],
            [
              107.5711620176736,
              -7.106098543219062
            ],
            [
              107.57123990170854,
              -7.106044490679814
            ],
            [
              107.57127189775626,
              -7.106079249399941
            ],
            [
              107.57123904557434,
              -7.10610234962814
            ],
            [
              107.57126504956017,
              -7.106137059361956
            ],
            [
              107.5713740812066,
              -7.10606053868532
            ],
            [
              107.57138467887206,
              -7.106070636596179
            ],
            [
              107.57141576396579,
              -7.106048149841493
            ],
            [
              107.57144629735964,
              -7.105994787505811
            ],
            [
              107.5715306149915,
              -7.105903066312696
            ],
            [
              107.57156545089829,
              -7.105713848969979
            ],
            [
              107.57159713333266,
              -7.105544203466413
            ],
            [
              107.57159653519707,
              -7.105436658861224
            ],
            [
              107.57194863227731,
              -7.105389077687989
            ],
            [
              107.57202736702716,
              -7.1054668579871185
            ],
            [
              107.5720571285769,
              -7.105538391687372
            ],
            [
              107.5720588269848,
              -7.105572598263064
            ],
            [
              107.5720677024096,
              -7.105613324981335
            ],
            [
              107.57208104825087,
              -7.105645165173285
            ],
            [
              107.57225853954155,
              -7.105582627825811
            ],
            [
              107.57232771116412,
              -7.1055310219683205
            ],
            [
              107.57240603495387,
              -7.105503863777457
            ],
            [
              107.57249091526323,
              -7.105513169730167
            ],
            [
              107.57274165566851,
              -7.105427042906738
            ],
            [
              107.57282675355636,
              -7.105475456220429
            ],
            [
              107.57288261479155,
              -7.10554684491009
            ],
            [
              107.57297648398635,
              -7.105636764426431
            ],
            [
              107.5730069360304,
              -7.10565319905836
            ],
            [
              107.57303649871277,
              -7.105695798096976
            ],
            [
              107.57306281786816,
              -7.105736246257295
            ],
            [
              107.57307292023584,
              -7.105765934616587
            ],
            [
              107.57307676682333,
              -7.10578069782597
            ],
            [
              107.57307859133958,
              -7.105797071816871
            ],
            [
              107.5732101892522,
              -7.105758935895768
            ],
            [
              107.57327445961685,
              -7.105727252145695
            ],
            [
              107.57332053474772,
              -7.105711490549598
            ],
            [
              107.57333348423356,
              -7.105706075044252
            ],
            [
              107.5733327043091,
              -7.105670300001522
            ],
            [
              107.5733098046421,
              -7.105655167259306
            ],
            [
              107.5732789952581,
              -7.105659867710412
            ],
            [
              107.57328992412525,
              -7.105590977448471
            ],
            [
              107.57328456794741,
              -7.1055195442343635
            ],
            [
              107.5732895590452,
              -7.105472549309498
            ],
            [
              107.57329482096554,
              -7.1054230107668
            ],
            [
              107.57332998197712,
              -7.105303721125096
            ],
            [
              107.57325287754078,
              -7.10522450692389
            ],
            [
              107.57312755723996,
              -7.105108814085385
            ],
            [
              107.57307293290012,
              -7.105043952318883
            ],
            [
              107.57303796474532,
              -7.1050128964488035
            ],
            [
              107.57306452534536,
              -7.1049104263760166
            ],
            [
              107.57301685366882,
              -7.10488833798346
            ],
            [
              107.57302445253247,
              -7.104854096985029
            ],
            [
              107.57293106304502,
              -7.104814584184381
            ],
            [
              107.57289138803456,
              -7.104763569045912
            ],
            [
              107.5728229010564,
              -7.104713641957594
            ],
            [
              107.57277707643743,
              -7.104709052511171
            ],
            [
              107.57273353440635,
              -7.1047491899907245
            ],
            [
              107.57269408672474,
              -7.104755942751172
            ],
            [
              107.57268682779618,
              -7.104753234888643
            ],
            [
              107.57266038730847,
              -7.1047358389937605
            ],
            [
              107.57263816791355,
              -7.1047053982132775
            ],
            [
              107.57261809639253,
              -7.10468929178687
            ],
            [
              107.5725974205739,
              -7.104676931849985
            ],
            [
              107.57256796225836,
              -7.104657135294627
            ],
            [
              107.57255159878487,
              -7.10463414736942
            ],
            [
              107.57254089068358,
              -7.104617365406421
            ],
            [
              107.57252205372451,
              -7.1045987569970706
            ],
            [
              107.57251012648172,
              -7.10457505040014
            ],
            [
              107.57248765475344,
              -7.104543481378272
            ],
            [
              107.57243271708843,
              -7.104533506702706
            ],
            [
              107.57239562474216,
              -7.104494309338525
            ],
            [
              107.57235881314318,
              -7.104399378153885
            ],
            [
              107.57236930824679,
              -7.104359167481906
            ],
            [
              107.57234096296852,
              -7.104321848251328
            ],
            [
              107.57228320807288,
              -7.104296738605081
            ],
            [
              107.57212505315837,
              -7.104156599834891
            ],
            [
              107.57204067546716,
              -7.104061129174143
            ],
            [
              107.57195786360973,
              -7.1039732643987055
            ],
            [
              107.57185171584872,
              -7.103941461084118
            ],
            [
              107.57183910849183,
              -7.1039364910886915
            ],
            [
              107.57174660380609,
              -7.103874162662134
            ]
          ]
        ]
      },
      "properties": {
        "FID": 0,
        "id": 1,
        "Luas": 4.474,
        "PJ": "Pak Pena"
      }
    }
  ]
}