{
  "type": "FeatureCollection",
  "features": [
    {
      "type": "Feature",
      "id": 3,
      "geometry": {
        "type": "Polygon",
        "coordinates": [
          [
            [
              107.57088598937305,
              -7.103346282315335
            ],
            [
              107.57083473987224,
              -7.103294678477355
            ],
            [
              107.57077278446357,
              -7.10326716599107
            ],
            [
              107.5707214473283,
              -7.103251640487963
            ],
            [
              107.57064752533084,
              -7.103240757435907
            ],
            [
              107.57052716475938,
              -7.103282079776305
            ],
            [
              107.57049713528004,
              -7.103303326604224
            ],
            [
              107.57048747569686,
              -7.103328224808843
            ],
            [
              107.57048539042881,
              -7.103359856820161
            ],
            [
              107.57049696319916,
              -7.103407976181102
            ],
            [
              107.57051693090463,
              -7.103474870679569
            ],
            [
              107.5705270465634,
              -7.103532032531334
            ],
            [
              107.57054009320689,
              -7.103574120771996
            ],
            [
              107.57057053276009,
              -7.103626652700275
            ],
            [
              107.57059722491175,
              -7.103682969745827
            ],
            [
              107.57062163442265,
              -7.103718454422606
            ],
            [
              107.57064898084418,
              -7.103765356986119
            ],
            [
              107.57067529351525,
              -7.103838145105756
            ],
            [
              107.57070616622646,
              -7.1038838517474625
            ],
            [
              107.57073697355725,
              -7.103917795190723
            ],
            [
              107.57081678908541,
              -7.103870298261371
            ],
            [
              107.57083570267817,
              -7.103883133265432
            ],
            [
              107.57085943785164,
              -7.103915939568876
            ],
            [
              107.57086999051508,
              -7.103907646546532
            ],
            [
              107.57091410785104,
              -7.1038815329331415
            ],
            [
              107.57090066473579,
              -7.10383281562556
            ],
            [
              107.57089114691102,
              -7.103798878309428
            ],
            [
              107.57088734579426,
              -7.103744591309671
            ],
            [
              107.57088107195085,
              -7.103695799892498
            ],
            [
              107.57088480205745,
              -7.103595557540162
            ],
            [
              107.57088484834101,
              -7.1035544071276835
            ],
            [
              107.57088961409873,
              -7.103523131518059
            ],
            [
              107.57089711312979,
              -7.1034961243047015
            ],
            [
              107.57089420697663,
              -7.103436178768482
            ],
            [
              107.57088598937305,
              -7.103346282315335
            ]
          ]
        ]
      },
      "properties": {
        "FID": 3,
        "id": 0,
        "Luas": 0.245,
        "PJ": "Pak Erus"
      }
    }
  ]
}