{
  "type": "FeatureCollection",
  "features": [
    {
      "type": "Feature",
      "id": 1,
      "geometry": {
        "type": "Polygon",
        "coordinates": [
          [
            [
              107.57150483832103,
              -7.107252833384125
            ],
            [
              107.57165193827707,
              -7.10724613825988
            ],
            [
              107.57176641967354,
              -7.10724307540851
            ],
            [
              107.57179944837473,
              -7.1072451946912185
            ],
            [
              107.57178233910531,
              -7.107077766604894
            ],
            [
              107.57173961005302,
              -7.106659619954793
            ],
            [
              107.57171961812752,
              -7.10646398158221
            ],
            [
              107.57171657327766,
              -7.106431518485955
            ],
            [
              107.57170456615609,
              -7.10630352225277
            ],
            [
              107.57170061929837,
              -7.106215267717545
            ],
            [
              107.57165441408313,
              -7.106235158027537
            ],
            [
              107.57157973480224,
              -7.1062617726779855
            ],
            [
              107.57149797503328,
              -7.1062637672622735
            ],
            [
              107.57144705037938,
              -7.106268760894785
            ],
            [
              107.57143185978592,
              -7.10627025045882
            ],
            [
              107.57143178575902,
              -7.106270278884447
            ],
            [
              107.57141161033911,
              -7.106274704230322
            ],
            [
              107.57138817411662,
              -7.106282657656165
            ],
            [
              107.57138818268204,
              -7.106287288185061
            ],
            [
              107.57138839371086,
              -7.106399564032554
            ],
            [
              107.57138846839081,
              -7.106439015695225
            ],
            [
              107.57139048841204,
              -7.106485505448173
            ],
            [
              107.57139147920407,
              -7.106508304001723
            ],
            [
              107.57138806299743,
              -7.106540658373818
            ],
            [
              107.57137453301665,
              -7.106654469060264
            ],
            [
              107.57137260520139,
              -7.106813068868079
            ],
            [
              107.57135431735107,
              -7.10681317398198
            ],
            [
              107.57133811204702,
              -7.106813267536972
            ],
            [
              107.57133685400017,
              -7.106813336874716
            ],
            [
              107.57123391230812,
              -7.1068190448432
            ],
            [
              107.57123434804315,
              -7.106823214824142
            ],
            [
              107.57123702455947,
              -7.106848828098258
            ],
            [
              107.57125639012354,
              -7.1069554624659785
            ],
            [
              107.57127112178317,
              -7.107017356691474
            ],
            [
              107.5712776453753,
              -7.107058637808871
            ],
            [
              107.57129411057932,
              -7.10710884565721
            ],
            [
              107.57130142217966,
              -7.1071502913919105
            ],
            [
              107.57131046928767,
              -7.107255708794931
            ],
            [
              107.57134500918268,
              -7.107256425308576
            ],
            [
              107.57150483832103,
              -7.107252833384125
            ]
          ]
        ]
      },
      "properties": {
        "FID": 1,
        "id": 0,
        "Luas": 0.503,
        "PJ": "Pak Pena"
      }
    }
  ]
}