{
  "type": "FeatureCollection",
  "features": [
    {
      "type": "Feature",
      "id": 4,
      "geometry": {
        "type": "Polygon",
        "coordinates": [
          [
            [
              107.57074586412361,
              -7.107081511086837
            ],
            [
              107.57071084916234,
              -7.107148615617261
            ],
            [
              107.57070311858799,
              -7.107163431361017
            ],
            [
              107.57064829841342,
              -7.107173837153188
            ],
            [
              107.57063700163252,
              -7.107175821111336
            ],
            [
              107.57060207369777,
              -7.107181953156488
            ],
            [
              107.57059206214012,
              -7.1071837112859715
            ],
            [
              107.57055110584955,
              -7.1071860378426726
            ],
            [
              107.57052445644645,
              -7.107187551205877
            ],
            [
              107.57051686809436,
              -7.107190850259463
            ],
            [
              107.57049391455881,
              -7.107015544265103
            ],
            [
              107.57046048593713,
              -7.10701829987221
            ],
            [
              107.57034483693432,
              -7.107039499877218
            ],
            [
              107.57034503697209,
              -7.1070754761327395
            ],
            [
              107.57038461066608,
              -7.107252571451624
            ],
            [
              107.57043641242225,
              -7.107334835595793
            ],
            [
              107.57043326444297,
              -7.10733896943429
            ],
            [
              107.57044966268815,
              -7.107404153896242
            ],
            [
              107.57047488596217,
              -7.107504423594154
            ],
            [
              107.57055463382042,
              -7.107633361678014
            ],
            [
              107.57060945377582,
              -7.107622092841062
            ],
            [
              107.57067717652988,
              -7.107562509069957
            ],
            [
              107.57072737439651,
              -7.107509601509117
            ],
            [
              107.57075793711394,
              -7.107478731281493
            ],
            [
              107.57081482981498,
              -7.107445522553422
            ],
            [
              107.57088167233667,
              -7.107412632738128
            ],
            [
              107.5708885570933,
              -7.107367738291818
            ],
            [
              107.57087956506767,
              -7.107243417770451
            ],
            [
              107.57090828855604,
              -7.1072390706092765
            ],
            [
              107.57098485016866,
              -7.107227483182055
            ],
            [
              107.57098684670795,
              -7.107175895925239
            ],
            [
              107.57101674093656,
              -7.106993281290839
            ],
            [
              107.57098155472306,
              -7.106982248939658
            ],
            [
              107.57097837834976,
              -7.106932312537102
            ],
            [
              107.57097539637181,
              -7.106885445840614
            ],
            [
              107.57097577803916,
              -7.106869158078164
            ],
            [
              107.57100052344548,
              -7.106782480285372
            ],
            [
              107.57116654343675,
              -7.106764598256273
            ],
            [
              107.57114627124778,
              -7.106667369230033
            ],
            [
              107.57114582137629,
              -7.106665211875004
            ],
            [
              107.57114259888225,
              -7.1066403300130165
            ],
            [
              107.57112517709974,
              -7.106505793834094
            ],
            [
              107.57110662752324,
              -7.106426952837436
            ],
            [
              107.57107975867922,
              -7.106393878177221
            ],
            [
              107.57106332199473,
              -7.106387502483156
            ],
            [
              107.57102204165732,
              -7.106415324335127
            ],
            [
              107.5709941197726,
              -7.106439191555528
            ],
            [
              107.5708756146844,
              -7.106550652246243
            ],
            [
              107.57081564069223,
              -7.106597203152474
            ],
            [
              107.57079359701838,
              -7.106614313291206
            ],
            [
              107.57079266468169,
              -7.106615036909022
            ],
            [
              107.57078631398642,
              -7.10661996660709
            ],
            [
              107.57078582214308,
              -7.106620347988083
            ],
            [
              107.5707543031486,
              -7.106652185044695
            ],
            [
              107.57075274866511,
              -7.106660443582569
            ],
            [
              107.57075154049457,
              -7.106661510330914
            ],
            [
              107.57074180206557,
              -7.106673011582856
            ],
            [
              107.57073897783675,
              -7.106672402794078
            ],
            [
              107.57073933038815,
              -7.106675931608935
            ],
            [
              107.57074453909092,
              -7.106728058169229
            ],
            [
              107.57074843307686,
              -7.106874507981399
            ],
            [
              107.570748568025,
              -7.106879577914975
            ],
            [
              107.57075644357714,
              -7.106932968416603
            ],
            [
              107.57076521204206,
              -7.10704443139403
            ],
            [
              107.57074586412361,
              -7.107081511086837
            ]
          ]
        ]
      },
      "properties": {
        "FID": 4,
        "id": 0,
        "Luas": 0.485,
        "PJ": "Pak Pena"
      }
    }
  ]
}