{
  "type": "FeatureCollection",
  "features": [
    {
      "type": "Feature",
      "id": 2,
      "geometry": {
        "type": "Polygon",
        "coordinates": [
          [
            [
              107.57100133216194,
              -7.103878342510153
            ],
            [
              107.57104189456363,
              -7.103897977300093
            ],
            [
              107.57106083549368,
              -7.103931396025224
            ],
            [
              107.57107487896351,
              -7.103971745308948
            ],
            [
              107.57110540063228,
              -7.104024326988178
            ],
            [
              107.57111668508901,
              -7.104112080891572
            ],
            [
              107.57111689065015,
              -7.104149054787811
            ],
            [
              107.57114622642067,
              -7.104181807645121
            ],
            [
              107.57114752374439,
              -7.104213212283936
            ],
            [
              107.57115938509538,
              -7.104326454653631
            ],
            [
              107.57116041192944,
              -7.1043783631172195
            ],
            [
              107.5711603047431,
              -7.104416198169083
            ],
            [
              107.57115155898649,
              -7.104433915902763
            ],
            [
              107.57114869315181,
              -7.104458039000699
            ],
            [
              107.57114979019957,
              -7.104499306868033
            ],
            [
              107.5711528422597,
              -7.104514535416318
            ],
            [
              107.57114369973195,
              -7.104547618314029
            ],
            [
              107.57114137243119,
              -7.104586591697879
            ],
            [
              107.57114317608465,
              -7.104606062831206
            ],
            [
              107.57114216312513,
              -7.104652651663581
            ],
            [
              107.57114353633247,
              -7.104670854577504
            ],
            [
              107.57117353005856,
              -7.104742204566889
            ],
            [
              107.57120803034249,
              -7.104751938531697
            ],
            [
              107.57122853220676,
              -7.104745869376691
            ],
            [
              107.57125830687988,
              -7.104739748772984
            ],
            [
              107.57128209496595,
              -7.1047290299024555
            ],
            [
              107.57127521996897,
              -7.104803178065178
            ],
            [
              107.57143195244257,
              -7.1047559900143025
            ],
            [
              107.57158470976786,
              -7.104708823075737
            ],
            [
              107.5716113500872,
              -7.104701476348369
            ],
            [
              107.57163018724972,
              -7.104529299478135
            ],
            [
              107.57163974789972,
              -7.104398965844952
            ],
            [
              107.57163937419396,
              -7.1043317640208805
            ],
            [
              107.57163807479546,
              -7.104284212035938
            ],
            [
              107.57164388861268,
              -7.104212840532361
            ],
            [
              107.57165640087402,
              -7.104140024795655
            ],
            [
              107.57167396136254,
              -7.10408169813898
            ],
            [
              107.57169213345401,
              -7.104014104226944
            ],
            [
              107.5717220229441,
              -7.103909389850868
            ],
            [
              107.57173564533866,
              -7.103869778150447
            ],
            [
              107.57166233075853,
              -7.10384419790756
            ],
            [
              107.57161098099925,
              -7.103826414005509
            ],
            [
              107.57148640005623,
              -7.103786450376272
            ],
            [
              107.57141388905328,
              -7.103758243708632
            ],
            [
              107.5713881806926,
              -7.1037433289889185
            ],
            [
              107.57133913798586,
              -7.103733813790107
            ],
            [
              107.57131721470039,
              -7.10372188953594
            ],
            [
              107.57118527858913,
              -7.103638350296643
            ],
            [
              107.57111886470948,
              -7.103607471768687
            ],
            [
              107.57107075784488,
              -7.103586234843365
            ],
            [
              107.57104355890841,
              -7.103574339835114
            ],
            [
              107.5710304971007,
              -7.103551223969342
            ],
            [
              107.57102940384385,
              -7.103528101944599
            ],
            [
              107.57103514110784,
              -7.103518915252335
            ],
            [
              107.57106110208994,
              -7.103503352524226
            ],
            [
              107.5710803530798,
              -7.1034955363778485
            ],
            [
              107.5710856584449,
              -7.103445293300556
            ],
            [
              107.5710702005473,
              -7.103428932403314
            ],
            [
              107.57106399610923,
              -7.103398814643933
            ],
            [
              107.57106334064666,
              -7.103379630532222
            ],
            [
              107.57101643007725,
              -7.103363546884083
            ],
            [
              107.57097952407418,
              -7.1033577554175045
            ],
            [
              107.57093653936118,
              -7.103338292128128
            ],
            [
              107.57091593545806,
              -7.103334123427477
            ],
            [
              107.57089452166355,
              -7.103338525177557
            ],
            [
              107.57088598947428,
              -7.103346281864394
            ],
            [
              107.57089420694683,
              -7.103436178864627
            ],
            [
              107.5708971127541,
              -7.10349612446577
            ],
            [
              107.57088961370322,
              -7.103523131700834
            ],
            [
              107.57088484817297,
              -7.103554406754371
            ],
            [
              107.57088480250931,
              -7.103595557878435
            ],
            [
              107.57088107207547,
              -7.103695800299145
            ],
            [
              107.57088734601429,
              -7.103744591470163
            ],
            [
              107.57089114651598,
              -7.1037988785742945
            ],
            [
              107.57090066510939,
              -7.103832815504615
            ],
            [
              107.57091410760893,
              -7.10388153264688
            ],
            [
              107.57095286866469,
              -7.103874953011536
            ],
            [
              107.57100133216194,
              -7.103878342510153
            ]
          ]
        ]
      },
      "properties": {
        "FID": 2,
        "id": 0,
        "Luas": 0.778,
        "PJ": "Pak Ido"
      }
    }
  ]
}