{
  "type" : "FeatureCollection",
  "features" : [{"type":"Feature","id":0,"geometry":{"type":"Polygon","coordinates":[[[107.57174660380609,-7.1038741626621338],[107.57173564533866,-7.1038697781504636],[107.5717220229441,-7.1039093898508678],[107.57169213345399,-7.1040141042269616],[107.57167396136254,-7.1040816981389803],[107.57165640087399,-7.1041400247956723],[107.57164388861268,-7.1042128405323774],[107.57163807479546,-7.1042842120359548],[107.57163937419395,-7.1043317640208805],[107.57163974789972,-7.1043989658449691],[107.57163018724972,-7.1045292994781528],[107.5716113500872,-7.1047014763483691],[107.57158470976785,-7.1047088230757369],[107.57143195244257,-7.1047559900143193],[107.57127521996897,-7.104803178065195],[107.57128209496595,-7.1047290299024555],[107.57125830687988,-7.1047397487730013],[107.57122853220676,-7.1047458693766909],[107.57120803034249,-7.1047519385316971],[107.57117353005856,-7.1047422045668887],[107.57114353633247,-7.1046708545775044],[107.57114216312513,-7.1046526516635806],[107.57114317608465,-7.1046060628312064],[107.57114137243119,-7.1045865916978963],[107.57114369973193,-7.1045476183140455],[107.57115284225971,-7.1045145354163184],[107.57114979019957,-7.1044993068680329],[107.57114869315181,-7.1044580390007157],[107.57115155898647,-7.1044339159027627],[107.57116030474307,-7.1044161981690834],[107.57116041192944,-7.1043783631172364],[107.57115938509537,-7.1043264546536307],[107.57114752374439,-7.1042132122839527],[107.57114622642065,-7.104181807645138],[107.57111689065015,-7.1041490547878112],[107.571116685089,-7.1041120808915723],[107.57110540063226,-7.1040243269881778],[107.57107487896351,-7.1039717453089644],[107.57106083549367,-7.1039313960252244],[107.57104189456361,-7.1038979773000932],[107.57100133216196,-7.1038783425101526],[107.57103538742516,-7.1039211400790041],[107.57102304080496,-7.1039583516959377],[107.57100672086391,-7.1039910216498043],[107.57099400566848,-7.1040273542007313],[107.57099644658878,-7.1040800916575124],[107.57085488538685,-7.1042534744032189],[107.57085081143227,-7.1043139900350294],[107.57084699238759,-7.1043707240597573],[107.57085973837131,-7.1044186915425556],[107.5708571920414,-7.1044565139259577],[107.57085530216808,-7.1044959005941557],[107.57084697082931,-7.1045289301935606],[107.57084436637039,-7.1045315608637614],[107.57080898653416,-7.1046230104299202],[107.57075693142512,-7.1046493710459044],[107.57072773178284,-7.1046788645378003],[107.57072836588881,-7.1047929274356996],[107.57071266896364,-7.1049038212650188],[107.5706871129065,-7.1050017347612178],[107.57067733081261,-7.1050255573427892],[107.57055493336854,-7.1050215460698292],[107.57053323971209,-7.1050952649662502],[107.57051288792184,-7.1051454240849194],[107.57049266931881,-7.1051923643751085],[107.57047361792206,-7.1052277777714323],[107.57049170945835,-7.1052587657426756],[107.57048716191979,-7.1052889367290168],[107.5705099572008,-7.1053180143834149],[107.57055943175946,-7.1053317681384858],[107.57050711155958,-7.1054883295865263],[107.57050009500659,-7.105508717213521],[107.5704934060854,-7.1055281523264888],[107.57047253733106,-7.1055409777839937],[107.57042853014012,-7.1055689430219502],[107.57039956482591,-7.1055820140122705],[107.57033706265604,-7.1055777030198959],[107.57029275036855,-7.1055742228420256],[107.57028412747057,-7.1056166534959742],[107.57027184711571,-7.1056721439859327],[107.57026036860015,-7.1057205242024049],[107.57025495137896,-7.105766759744971],[107.57026623998155,-7.1058176651430536],[107.57032502550136,-7.1058102232921625],[107.57035324932593,-7.105812185917987],[107.57035534489239,-7.1058291630282158],[107.57034450719152,-7.1058592044361308],[107.57034557351508,-7.1058711906754315],[107.57034562998031,-7.1059000619030845],[107.57034824925124,-7.1059565623210608],[107.57034997233055,-7.1059929485443005],[107.57036987082606,-7.1060381372358945],[107.57037965198722,-7.1060445733794868],[107.57040066803867,-7.1060584009499053],[107.57041732772726,-7.1060585136720489],[107.57045529685357,-7.1060928417048412],[107.57044197167647,-7.1061146614587196],[107.57042699291,-7.1061269156409681],[107.57041754922503,-7.1061346413816695],[107.57039921049558,-7.1061395869698991],[107.57035592626454,-7.1061527726485192],[107.57034884652224,-7.1061640738838756],[107.57036699020715,-7.1061790470185304],[107.57040716901412,-7.1062062876952679],[107.57045801465291,-7.1062477685004151],[107.57047306627715,-7.106249757191816],[107.57048967105108,-7.106251219443716],[107.57054902712217,-7.1062928536424925],[107.57064969336552,-7.1063977691415552],[107.57066253834336,-7.106415522531],[107.57061274506741,-7.1064769135829344],[107.57070393266231,-7.1065567360792645],[107.57071449574629,-7.1065659829092862],[107.57073718344617,-7.1065869214599289],[107.57077421269683,-7.1065568296093993],[107.57083895441215,-7.1064979094674721],[107.57093836090596,-7.1064109294604609],[107.57096171198127,-7.1063930294579611],[107.57111154070088,-7.1062896150364656],[107.57110089858435,-7.1062759170104597],[107.57103905425463,-7.1061963194630762],[107.57103759172986,-7.1061950840822146],[107.57104234488375,-7.1061924604630082],[107.57105424307365,-7.1061831224411325],[107.5711620176736,-7.106098543219062],[107.57123990170854,-7.1060444906798139],[107.57127189775626,-7.106079249399941],[107.57123904557434,-7.1061023496281397],[107.57126504956017,-7.1061370593619557],[107.5713740812066,-7.1060605386853197],[107.57138467887206,-7.1060706365961792],[107.57141576396579,-7.1060481498414934],[107.57144629735964,-7.1059947875058107],[107.5715306149915,-7.1059030663126963],[107.57156545089829,-7.1057138489699794],[107.57159713333266,-7.1055442034664127],[107.57159653519707,-7.1054366588612243],[107.57194863227731,-7.1053890776879891],[107.57202736702716,-7.1054668579871185],[107.5720571285769,-7.1055383916873716],[107.5720588269848,-7.1055725982630644],[107.5720677024096,-7.1056133249813351],[107.57208104825087,-7.1056451651732848],[107.57225853954155,-7.105582627825811],[107.57232771116412,-7.1055310219683205],[107.57240603495387,-7.1055038637774572],[107.57249091526323,-7.105513169730167],[107.57274165566851,-7.1054270429067383],[107.57282675355636,-7.1054754562204288],[107.57288261479155,-7.1055468449100898],[107.57297648398635,-7.1056367644264311],[107.5730069360304,-7.1056531990583602],[107.57303649871277,-7.1056957980969759],[107.57306281786816,-7.1057362462572948],[107.57307292023584,-7.1057659346165867],[107.57307676682333,-7.1057806978259697],[107.57307859133958,-7.1057970718168706],[107.57321018925219,-7.1057589358957678],[107.57327445961685,-7.1057272521456953],[107.57332053474772,-7.1057114905495977],[107.57333348423356,-7.1057060750442522],[107.5733327043091,-7.1056703000015222],[107.57330980464209,-7.1056551672593056],[107.57327899525809,-7.1056598677104121],[107.57328992412525,-7.1055909774484709],[107.57328456794741,-7.1055195442343635],[107.57328955904519,-7.1054725493094981],[107.57329482096554,-7.1054230107667999],[107.57332998197712,-7.1053037211250958],[107.57325287754078,-7.1052245069238902],[107.57312755723996,-7.1051088140853853],[107.57307293290012,-7.1050439523188826],[107.57303796474532,-7.1050128964488035],[107.57306452534536,-7.1049104263760166],[107.57301685366882,-7.1048883379834598],[107.57302445253247,-7.1048540969850293],[107.57293106304502,-7.1048145841843811],[107.57289138803456,-7.1047635690459119],[107.5728229010564,-7.104713641957594],[107.57277707643743,-7.1047090525111711],[107.57273353440635,-7.1047491899907245],[107.57269408672474,-7.1047559427511722],[107.57268682779618,-7.1047532348886433],[107.57266038730847,-7.1047358389937605],[107.57263816791355,-7.1047053982132775],[107.57261809639253,-7.1046892917868698],[107.5725974205739,-7.1046769318499852],[107.57256796225836,-7.1046571352946266],[107.57255159878487,-7.1046341473694197],[107.57254089068358,-7.1046173654064209],[107.57252205372451,-7.1045987569970706],[107.57251012648172,-7.1045750504001397],[107.57248765475344,-7.104543481378272],[107.57243271708843,-7.1045335067027056],[107.57239562474216,-7.1044943093385253],[107.57235881314318,-7.104399378153885],[107.57236930824679,-7.1043591674819062],[107.57234096296852,-7.1043218482513284],[107.57228320807288,-7.1042967386050808],[107.57212505315837,-7.1041565998348908],[107.57204067546716,-7.1040611291741431],[107.57195786360973,-7.1039732643987055],[107.57185171584872,-7.1039414610841183],[107.57183910849183,-7.1039364910886915],[107.57174660380609,-7.1038741626621338]]]},"properties":{"FID":0,"id":1,"Luas":4.4740000000000002,"PJ":"Pak Pena"}},{"type":"Feature","id":1,"geometry":{"type":"Polygon","coordinates":[[[107.57150483832103,-7.1072528333841252],[107.57165193827707,-7.1072461382598799],[107.57176641967354,-7.1072430754085101],[107.57179944837473,-7.1072451946912185],[107.57178233910531,-7.1070777666048937],[107.57173961005302,-7.1066596199547929],[107.57171961812752,-7.1064639815822099],[107.57171657327766,-7.1064315184859552],[107.57170456615609,-7.1063035222527704],[107.57170061929837,-7.1062152677175447],[107.57165441408313,-7.1062351580275367],[107.57157973480224,-7.1062617726779855],[107.57149797503328,-7.1062637672622735],[107.57144705037938,-7.1062687608947854],[107.57143185978592,-7.1062702504588202],[107.57143178575902,-7.1062702788844474],[107.57141161033911,-7.106274704230322],[107.57138817411662,-7.1062826576561653],[107.57138818268204,-7.1062872881850607],[107.57138839371086,-7.1063995640325537],[107.57138846839081,-7.1064390156952246],[107.57139048841204,-7.1064855054481733],[107.57139147920407,-7.1065083040017232],[107.57138806299743,-7.1065406583738184],[107.57137453301665,-7.1066544690602642],[107.57137260520139,-7.1068130688680791],[107.57135431735107,-7.1068131739819798],[107.57133811204702,-7.106813267536972],[107.57133685400017,-7.1068133368747164],[107.57123391230812,-7.1068190448432],[107.57123434804315,-7.1068232148241419],[107.57123702455947,-7.1068488280982578],[107.57125639012354,-7.1069554624659785],[107.57127112178317,-7.1070173566914736],[107.5712776453753,-7.1070586378088709],[107.57129411057932,-7.1071088456572102],[107.57130142217966,-7.1071502913919105],[107.57131046928767,-7.1072557087949306],[107.57134500918268,-7.1072564253085764],[107.57150483832103,-7.1072528333841252]]]},"properties":{"FID":1,"id":0,"Luas":0.503,"PJ":"Pak Pena"}},{"type":"Feature","id":2,"geometry":{"type":"Polygon","coordinates":[[[107.57100133216194,-7.1038783425101526],[107.57104189456363,-7.1038979773000932],[107.57106083549368,-7.1039313960252244],[107.57107487896351,-7.1039717453089484],[107.57110540063228,-7.1040243269881778],[107.57111668508901,-7.1041120808915723],[107.57111689065015,-7.1041490547878112],[107.57114622642067,-7.1041818076451211],[107.57114752374439,-7.1042132122839359],[107.57115938509538,-7.1043264546536307],[107.57116041192944,-7.1043783631172195],[107.5711603047431,-7.1044161981690834],[107.57115155898649,-7.1044339159027627],[107.57114869315181,-7.1044580390006988],[107.57114979019957,-7.1044993068680329],[107.57115284225971,-7.1045145354163184],[107.57114369973195,-7.1045476183140286],[107.57114137243119,-7.1045865916978794],[107.57114317608465,-7.1046060628312064],[107.57114216312513,-7.1046526516635806],[107.57114353633247,-7.1046708545775044],[107.57117353005856,-7.1047422045668887],[107.57120803034249,-7.1047519385316971],[107.57122853220676,-7.1047458693766909],[107.57125830687988,-7.1047397487729844],[107.57128209496595,-7.1047290299024555],[107.57127521996897,-7.1048031780651781],[107.57143195244257,-7.1047559900143025],[107.57158470976786,-7.1047088230757369],[107.5716113500872,-7.1047014763483691],[107.57163018724972,-7.1045292994781351],[107.57163974789972,-7.1043989658449522],[107.57163937419396,-7.1043317640208805],[107.57163807479546,-7.104284212035938],[107.57164388861268,-7.1042128405323606],[107.57165640087402,-7.1041400247956554],[107.57167396136254,-7.1040816981389803],[107.57169213345401,-7.1040141042269438],[107.5717220229441,-7.1039093898508678],[107.57173564533866,-7.1038697781504467],[107.57166233075853,-7.1038441979075602],[107.57161098099925,-7.1038264140055087],[107.57148640005623,-7.1037864503762718],[107.57141388905328,-7.103758243708632],[107.57138818069259,-7.1037433289889185],[107.57133913798586,-7.1037338137901074],[107.57131721470039,-7.1037218895359402],[107.57118527858913,-7.1036383502966434],[107.57111886470948,-7.1036074717686866],[107.57107075784488,-7.1035862348433652],[107.57104355890841,-7.1035743398351139],[107.57103049710069,-7.1035512239693421],[107.57102940384385,-7.1035281019445993],[107.57103514110784,-7.1035189152523346],[107.57106110208994,-7.1035033525242257],[107.57108035307979,-7.1034955363778485],[107.5710856584449,-7.1034452933005561],[107.5710702005473,-7.1034289324033137],[107.57106399610923,-7.1033988146439331],[107.57106334064666,-7.1033796305322223],[107.57101643007725,-7.1033635468840828],[107.57097952407418,-7.1033577554175045],[107.57093653936118,-7.1033382921281278],[107.57091593545806,-7.1033341234274774],[107.57089452166355,-7.1033385251775574],[107.57088598947428,-7.1033462818643942],[107.57089420694683,-7.1034361788646274],[107.5708971127541,-7.1034961244657699],[107.57088961370322,-7.1035231317008343],[107.57088484817297,-7.1035544067543714],[107.57088480250931,-7.1035955578784353],[107.57088107207547,-7.1036958002991453],[107.57088734601429,-7.1037445914701633],[107.57089114651598,-7.1037988785742945],[107.57090066510939,-7.1038328155046147],[107.57091410760893,-7.1038815326468798],[107.57095286866469,-7.1038749530115357],[107.57100133216194,-7.1038783425101526]]]},"properties":{"FID":2,"id":0,"Luas":0.77800000000000002,"PJ":"Pak Ido"}},{"type":"Feature","id":3,"geometry":{"type":"Polygon","coordinates":[[[107.57088598937305,-7.1033462823153348],[107.57083473987224,-7.1032946784773552],[107.57077278446357,-7.1032671659910704],[107.5707214473283,-7.1032516404879633],[107.57064752533084,-7.1032407574359073],[107.57052716475938,-7.1032820797763048],[107.57049713528004,-7.103303326604224],[107.57048747569686,-7.103328224808843],[107.57048539042881,-7.1033598568201608],[107.57049696319916,-7.103407976181102],[107.57051693090463,-7.1034748706795687],[107.5705270465634,-7.1035320325313336],[107.57054009320689,-7.103574120771996],[107.57057053276009,-7.1036266527002754],[107.57059722491175,-7.1036829697458268],[107.57062163442265,-7.103718454422606],[107.57064898084418,-7.103765356986119],[107.57067529351525,-7.1038381451057564],[107.57070616622646,-7.1038838517474625],[107.57073697355725,-7.1039177951907231],[107.57081678908541,-7.1038702982613708],[107.57083570267817,-7.1038831332654322],[107.57085943785164,-7.1039159395688758],[107.57086999051508,-7.1039076465465323],[107.57091410785104,-7.1038815329331415],[107.57090066473579,-7.1038328156255597],[107.57089114691102,-7.1037988783094281],[107.57088734579426,-7.1037445913096713],[107.57088107195085,-7.1036957998924981],[107.57088480205745,-7.1035955575401619],[107.57088484834101,-7.1035544071276835],[107.57088961409873,-7.1035231315180587],[107.57089711312979,-7.1034961243047015],[107.57089420697663,-7.1034361787684821],[107.57088598937305,-7.1033462823153348]]]},"properties":{"FID":3,"id":0,"Luas":0.245,"PJ":"Pak Erus"}},{"type":"Feature","id":4,"geometry":{"type":"Polygon","coordinates":[[[107.57074586412361,-7.1070815110868368],[107.57071084916234,-7.1071486156172607],[107.57070311858799,-7.107163431361017],[107.57064829841342,-7.1071738371531881],[107.57063700163252,-7.1071758211113361],[107.57060207369777,-7.1071819531564877],[107.57059206214012,-7.1071837112859715],[107.57055110584955,-7.1071860378426726],[107.57052445644645,-7.1071875512058771],[107.57051686809436,-7.107190850259463],[107.57049391455881,-7.1070155442651028],[107.57046048593713,-7.1070182998722098],[107.57034483693432,-7.1070394998772182],[107.57034503697209,-7.1070754761327395],[107.57038461066608,-7.1072525714516237],[107.57043641242225,-7.1073348355957933],[107.57043326444297,-7.1073389694342897],[107.57044966268815,-7.1074041538962422],[107.57047488596217,-7.107504423594154],[107.57055463382042,-7.1076333616780136],[107.57060945377582,-7.1076220928410621],[107.57067717652988,-7.1075625090699566],[107.57072737439651,-7.1075096015091166],[107.57075793711394,-7.1074787312814927],[107.57081482981498,-7.1074455225534221],[107.57088167233667,-7.1074126327381277],[107.5708885570933,-7.1073677382918179],[107.57087956506767,-7.1072434177704507],[107.57090828855604,-7.1072390706092765],[107.57098485016866,-7.1072274831820552],[107.57098684670795,-7.1071758959252387],[107.57101674093656,-7.1069932812908387],[107.57098155472306,-7.1069822489396577],[107.57097837834976,-7.1069323125371016],[107.57097539637181,-7.1068854458406143],[107.57097577803916,-7.1068691580781644],[107.57100052344548,-7.1067824802853723],[107.57116654343675,-7.106764598256273],[107.57114627124778,-7.1066673692300331],[107.57114582137629,-7.1066652118750042],[107.57114259888225,-7.1066403300130165],[107.57112517709974,-7.1065057938340939],[107.57110662752324,-7.1064269528374364],[107.57107975867922,-7.1063938781772213],[107.57106332199473,-7.1063875024831562],[107.57102204165732,-7.1064153243351269],[107.57099411977261,-7.1064391915555278],[107.5708756146844,-7.1065506522462432],[107.57081564069223,-7.1065972031524742],[107.57079359701838,-7.1066143132912059],[107.57079266468169,-7.1066150369090222],[107.57078631398642,-7.1066199666070897],[107.57078582214308,-7.1066203479880832],[107.5707543031486,-7.1066521850446946],[107.57075274866511,-7.1066604435825687],[107.57075154049457,-7.1066615103309143],[107.57074180206557,-7.1066730115828562],[107.57073897783675,-7.1066724027940777],[107.57073933038815,-7.106675931608935],[107.57074453909092,-7.1067280581692289],[107.57074843307686,-7.1068745079813986],[107.570748568025,-7.1068795779149747],[107.57075644357714,-7.1069329684166034],[107.57076521204206,-7.10704443139403],[107.57074586412361,-7.1070815110868368]]]},"properties":{"FID":4,"id":0,"Luas":0.48499999999999999,"PJ":"Pak Pena"}}]
}